ISS (ZARYA)             
1 25544U 98067A   25358.72926446  .00013665  00000+0  24881-3 0  9999
2 25544  51.6316  83.1022 0003193 296.2044  63.8616 15.49788781544712
CSS (TIANHE)            
1 48274U 21035A   25359.07486602  .00016485  00000+0  20421-3 0  9998
2 48274  41.4684 301.7934 0008271 139.6040 220.5414 15.59658287265953
ISS (NAUKA)             
1 49044U 21066A   25358.72926446  .00013665  00000+0  24881-3 0  9995
2 49044  51.6317  83.1022 0003193 296.2044  63.8616 15.49788781230446
FREGAT DEB              
1 49271U 11037PF  25355.71975141  .00004375  00000+0  99639-2 0  9996
2 49271  51.6526 172.8815 0862706 243.3133 107.6905 12.34516267203044
CSS (WENTIAN)           
1 53239U 22085A   25358.88276676  .00016629  00000+0  20600-3 0  9996
2 53239  41.4683 302.9604 0008234 137.9360 222.2112 15.59651715173840
CSS (MENGTIAN)          
1 54216U 22143A   25358.88276676  .00016629  00000+0  20600-3 0  9997
2 54216  41.4683 302.9604 0008234 137.9360 222.2112 15.59651715158647
SHENZHOU-20 (SZ-20)     
1 63632U 25082A   25358.88276676  .00016629  00000+0  20600-3 0  9994
2 63632  41.4683 302.9604 0008234 137.9360 222.2112 15.59651715255300
PROGRESS-MS 31          
1 64751U 25146A   25358.72926446  .00013665  00000+0  24881-3 0  9990
2 64751  51.6317  83.1022 0003193 296.2044  63.8616 15.49788781  6753
TIANZHOU-9              
1 64786U 25149A   25358.88276676  .00016629  00000+0  20600-3 0  9999
2 64786  41.4683 302.9604 0008234 137.9360 222.2112 15.59651715255301
CREW DRAGON 11          
1 65077U 25166A   25358.72926446  .00013665  00000+0  24881-3 0  9994
2 65077  51.6317  83.1022 0003193 296.2044  63.8616 15.49788781  2144
DRAGON CRS-33           
1 65304U 25186A   25358.72926446  .00013665  00000+0  24881-3 0  9999
2 65304  51.6317  83.1022 0003193 296.2044  63.8616 15.49788781   112
PROGRESS-MS 32          
1 65586U 25204A   25358.72926446  .00013665  00000+0  24881-3 0  9992
2 65586  51.6317  83.1022 0003193 296.2044  63.8616 15.49788781   271
