CCSDS_OMM_VERS = 2.0
CREATION_DATE  = 
ORIGINATOR     = 

OBJECT_NAME    = ISS (ZARYA)
OBJECT_ID      = 1998-067A
CENTER_NAME    = EARTH
REF_FRAME      = TEME
TIME_SYSTEM    = UTC
MEAN_ELEMENT_THEORY = SGP/SGP4

EPOCH          = 2025-12-24T17:30:08.449344
MEAN_MOTION    = 15.49788781
ECCENTRICITY   = .0003193
INCLINATION    = 51.6316
RA_OF_ASC_NODE = 83.1022
ARG_OF_PERICENTER = 296.2044
MEAN_ANOMALY   = 63.8616

EPHEMERIS_TYPE = 0
CLASSIFICATION_TYPE = U
NORAD_CAT_ID   = 25544
ELEMENT_SET_NO = 999
REV_AT_EPOCH   = 54471
BSTAR          = .24881E-3
MEAN_MOTION_DOT = .13665E-3
MEAN_MOTION_DDOT = 0

CCSDS_OMM_VERS = 2.0
CREATION_DATE  = 
ORIGINATOR     = 

OBJECT_NAME    = CSS (TIANHE)
OBJECT_ID      = 2021-035A
CENTER_NAME    = EARTH
REF_FRAME      = TEME
TIME_SYSTEM    = UTC
MEAN_ELEMENT_THEORY = SGP/SGP4

EPOCH          = 2025-12-25T01:47:48.424128
MEAN_MOTION    = 15.59658287
ECCENTRICITY   = .0008271
INCLINATION    = 41.4684
RA_OF_ASC_NODE = 301.7934
ARG_OF_PERICENTER = 139.6040
MEAN_ANOMALY   = 220.5414

EPHEMERIS_TYPE = 0
CLASSIFICATION_TYPE = U
NORAD_CAT_ID   = 48274
ELEMENT_SET_NO = 999
REV_AT_EPOCH   = 26595
BSTAR          = .20421E-3
MEAN_MOTION_DOT = .16485E-3
MEAN_MOTION_DDOT = 0

CCSDS_OMM_VERS = 2.0
CREATION_DATE  = 
ORIGINATOR     = 

OBJECT_NAME    = ISS (NAUKA)
OBJECT_ID      = 2021-066A
CENTER_NAME    = EARTH
REF_FRAME      = TEME
TIME_SYSTEM    = UTC
MEAN_ELEMENT_THEORY = SGP/SGP4

EPOCH          = 2025-12-24T17:30:08.449344
MEAN_MOTION    = 15.49788781
ECCENTRICITY   = .00031932
INCLINATION    = 51.6317
RA_OF_ASC_NODE = 83.1022
ARG_OF_PERICENTER = 296.2044
MEAN_ANOMALY   = 63.8616

EPHEMERIS_TYPE = 0
CLASSIFICATION_TYPE = U
NORAD_CAT_ID   = 49044
ELEMENT_SET_NO = 999
REV_AT_EPOCH   = 23044
BSTAR          = .24880559E-3
MEAN_MOTION_DOT = .13665E-3
MEAN_MOTION_DDOT = 0

CCSDS_OMM_VERS = 2.0
CREATION_DATE  = 
ORIGINATOR     = 

OBJECT_NAME    = FREGAT DEB
OBJECT_ID      = 2011-037PF
CENTER_NAME    = EARTH
REF_FRAME      = TEME
TIME_SYSTEM    = UTC
MEAN_ELEMENT_THEORY = SGP/SGP4

EPOCH          = 2025-12-21T17:16:26.521824
MEAN_MOTION    = 12.34516267
ECCENTRICITY   = .08627065
INCLINATION    = 51.6526
RA_OF_ASC_NODE = 172.8815
ARG_OF_PERICENTER = 243.3133
MEAN_ANOMALY   = 107.6905

EPHEMERIS_TYPE = 0
CLASSIFICATION_TYPE = U
NORAD_CAT_ID   = 49271
ELEMENT_SET_NO = 999
REV_AT_EPOCH   = 20304
BSTAR          = .99638707E-2
MEAN_MOTION_DOT = .4375E-4
MEAN_MOTION_DDOT = 0

CCSDS_OMM_VERS = 2.0
CREATION_DATE  = 
ORIGINATOR     = 

OBJECT_NAME    = CSS (WENTIAN)
OBJECT_ID      = 2022-085A
CENTER_NAME    = EARTH
REF_FRAME      = TEME
TIME_SYSTEM    = UTC
MEAN_ELEMENT_THEORY = SGP/SGP4

EPOCH          = 2025-12-24T21:11:11.048064
MEAN_MOTION    = 15.59651715
ECCENTRICITY   = .00082343
INCLINATION    = 41.4683
RA_OF_ASC_NODE = 302.9604
ARG_OF_PERICENTER = 137.9360
MEAN_ANOMALY   = 222.2112

EPHEMERIS_TYPE = 0
CLASSIFICATION_TYPE = U
NORAD_CAT_ID   = 53239
ELEMENT_SET_NO = 999
REV_AT_EPOCH   = 17384
BSTAR          = .20600017E-3
MEAN_MOTION_DOT = .16629E-3
MEAN_MOTION_DDOT = 0

CCSDS_OMM_VERS = 2.0
CREATION_DATE  = 
ORIGINATOR     = 

OBJECT_NAME    = CSS (MENGTIAN)
OBJECT_ID      = 2022-143A
CENTER_NAME    = EARTH
REF_FRAME      = TEME
TIME_SYSTEM    = UTC
MEAN_ELEMENT_THEORY = SGP/SGP4

EPOCH          = 2025-12-24T21:11:11.048064
MEAN_MOTION    = 15.59651715
ECCENTRICITY   = .00082343
INCLINATION    = 41.4683
RA_OF_ASC_NODE = 302.9604
ARG_OF_PERICENTER = 137.9360
MEAN_ANOMALY   = 222.2112

EPHEMERIS_TYPE = 0
CLASSIFICATION_TYPE = U
NORAD_CAT_ID   = 54216
ELEMENT_SET_NO = 999
REV_AT_EPOCH   = 15864
BSTAR          = .20600017E-3
MEAN_MOTION_DOT = .16629E-3
MEAN_MOTION_DDOT = 0

CCSDS_OMM_VERS = 2.0
CREATION_DATE  = 
ORIGINATOR     = 

OBJECT_NAME    = SHENZHOU-20 (SZ-20)
OBJECT_ID      = 2025-082A
CENTER_NAME    = EARTH
REF_FRAME      = TEME
TIME_SYSTEM    = UTC
MEAN_ELEMENT_THEORY = SGP/SGP4

EPOCH          = 2025-12-24T21:11:11.048064
MEAN_MOTION    = 15.59651715
ECCENTRICITY   = .00082343
INCLINATION    = 41.4683
RA_OF_ASC_NODE = 302.9604
ARG_OF_PERICENTER = 137.9360
MEAN_ANOMALY   = 222.2112

EPHEMERIS_TYPE = 0
CLASSIFICATION_TYPE = U
NORAD_CAT_ID   = 63632
ELEMENT_SET_NO = 999
REV_AT_EPOCH   = 25530
BSTAR          = .20600017E-3
MEAN_MOTION_DOT = .16629E-3
MEAN_MOTION_DDOT = 0

CCSDS_OMM_VERS = 2.0
CREATION_DATE  = 
ORIGINATOR     = 

OBJECT_NAME    = PROGRESS-MS 31
OBJECT_ID      = 2025-146A
CENTER_NAME    = EARTH
REF_FRAME      = TEME
TIME_SYSTEM    = UTC
MEAN_ELEMENT_THEORY = SGP/SGP4

EPOCH          = 2025-12-24T17:30:08.449344
MEAN_MOTION    = 15.49788781
ECCENTRICITY   = .00031932
INCLINATION    = 51.6317
RA_OF_ASC_NODE = 83.1022
ARG_OF_PERICENTER = 296.2044
MEAN_ANOMALY   = 63.8616

EPHEMERIS_TYPE = 0
CLASSIFICATION_TYPE = U
NORAD_CAT_ID   = 64751
ELEMENT_SET_NO = 999
REV_AT_EPOCH   = 675
BSTAR          = .24880559E-3
MEAN_MOTION_DOT = .13665E-3
MEAN_MOTION_DDOT = 0

CCSDS_OMM_VERS = 2.0
CREATION_DATE  = 
ORIGINATOR     = 

OBJECT_NAME    = TIANZHOU-9
OBJECT_ID      = 2025-149A
CENTER_NAME    = EARTH
REF_FRAME      = TEME
TIME_SYSTEM    = UTC
MEAN_ELEMENT_THEORY = SGP/SGP4

EPOCH          = 2025-12-24T21:11:11.048064
MEAN_MOTION    = 15.59651715
ECCENTRICITY   = .00082343
INCLINATION    = 41.4683
RA_OF_ASC_NODE = 302.9604
ARG_OF_PERICENTER = 137.9360
MEAN_ANOMALY   = 222.2112

EPHEMERIS_TYPE = 0
CLASSIFICATION_TYPE = U
NORAD_CAT_ID   = 64786
ELEMENT_SET_NO = 999
REV_AT_EPOCH   = 25530
BSTAR          = .20600017E-3
MEAN_MOTION_DOT = .16629E-3
MEAN_MOTION_DDOT = 0

CCSDS_OMM_VERS = 2.0
CREATION_DATE  = 
ORIGINATOR     = 

OBJECT_NAME    = CREW DRAGON 11
OBJECT_ID      = 2025-166A
CENTER_NAME    = EARTH
REF_FRAME      = TEME
TIME_SYSTEM    = UTC
MEAN_ELEMENT_THEORY = SGP/SGP4

EPOCH          = 2025-12-24T17:30:08.449344
MEAN_MOTION    = 15.49788781
ECCENTRICITY   = .00031932
INCLINATION    = 51.6317
RA_OF_ASC_NODE = 83.1022
ARG_OF_PERICENTER = 296.2044
MEAN_ANOMALY   = 63.8616

EPHEMERIS_TYPE = 0
CLASSIFICATION_TYPE = U
NORAD_CAT_ID   = 65077
ELEMENT_SET_NO = 999
REV_AT_EPOCH   = 214
BSTAR          = .24880559E-3
MEAN_MOTION_DOT = .13665E-3
MEAN_MOTION_DDOT = 0

CCSDS_OMM_VERS = 2.0
CREATION_DATE  = 
ORIGINATOR     = 

OBJECT_NAME    = DRAGON CRS-33
OBJECT_ID      = 2025-186A
CENTER_NAME    = EARTH
REF_FRAME      = TEME
TIME_SYSTEM    = UTC
MEAN_ELEMENT_THEORY = SGP/SGP4

EPOCH          = 2025-12-24T17:30:08.449344
MEAN_MOTION    = 15.49788781
ECCENTRICITY   = .00031932
INCLINATION    = 51.6317
RA_OF_ASC_NODE = 83.1022
ARG_OF_PERICENTER = 296.2044
MEAN_ANOMALY   = 63.8616

EPHEMERIS_TYPE = 0
CLASSIFICATION_TYPE = U
NORAD_CAT_ID   = 65304
ELEMENT_SET_NO = 999
REV_AT_EPOCH   = 11
BSTAR          = .24880559E-3
MEAN_MOTION_DOT = .13665E-3
MEAN_MOTION_DDOT = 0

CCSDS_OMM_VERS = 2.0
CREATION_DATE  = 
ORIGINATOR     = 

OBJECT_NAME    = PROGRESS-MS 32
OBJECT_ID      = 2025-204A
CENTER_NAME    = EARTH
REF_FRAME      = TEME
TIME_SYSTEM    = UTC
MEAN_ELEMENT_THEORY = SGP/SGP4

EPOCH          = 2025-12-24T17:30:08.449344
MEAN_MOTION    = 15.49788781
ECCENTRICITY   = .00031932
INCLINATION    = 51.6317
RA_OF_ASC_NODE = 83.1022
ARG_OF_PERICENTER = 296.2044
MEAN_ANOMALY   = 63.8616

EPHEMERIS_TYPE = 0
CLASSIFICATION_TYPE = U
NORAD_CAT_ID   = 65586
ELEMENT_SET_NO = 999
REV_AT_EPOCH   = 27
BSTAR          = .24880559E-3
MEAN_MOTION_DOT = .13665E-3
MEAN_MOTION_DDOT = 0

